start=new Date('2022-05-25T00:00:00.000Z').valueOf();
sats=[{"ELEMENT_SET_NO":"999","OBJECT_NAME":"STARLINK-1884","DECAY_DATE":null,"INCLINATION":"53.0540","RCS_SIZE":"LARGE","MEAN_ELEMENT_THEORY":"SGP4","PERIOD":"95.592","CLASSIFICATION_TYPE":"U","APOAPSIS":"548.515","NORAD_CAT_ID":"47167","RA_OF_ASC_NODE":"38.3724","GP_ID":"204454171","TLE_LINE1":"1 47167U 20088AX  22144.85562651  .00001107  00000-0  93212-4 0  9994","MEAN_MOTION":"15.06396892","LAUNCH_DATE":"2020-11-25","OBJECT_TYPE":"PAYLOAD","TLE_LINE2":"2 47167  53.0540  38.3724 0001866  38.2928 321.8193 15.06396892 83113","MEAN_MOTION_DOT":"0.00001107","ARG_OF_PERICENTER":"38.2928","FILE":"3462783","REF_FRAME":"TEME","REV_AT_EPOCH":"8311","ECCENTRICITY":"0.00018660","MEAN_MOTION_DDOT":"0.0000000000000","PERIAPSIS":"545.931","EPHEMERIS_TYPE":"0","EPOCH":"2022-05-24T20:32:06.130464","OBJECT_ID":"2020-088AX","SEMIMAJOR_AXIS":"6925.358","CENTER_NAME":"EARTH","MEAN_ANOMALY":"321.8193","TIME_SYSTEM":"UTC","BSTAR":"0.00009321200000","COUNTRY_CODE":"US","SITE":"AFETR"},{"LAUNCH_DATE":"2020-11-25","OBJECT_TYPE":"PAYLOAD","TLE_LINE2":"2 47168  53.0451 338.3198 0001123  44.5937 315.5179 15.90994604 83953","RA_OF_ASC_NODE":"338.3198","GP_ID":"204454421","MEAN_MOTION":"15.90994604","TLE_LINE1":"1 47168U 20088AY  22144.80452404  .00025507  11351-4  89803-4 0  9990","CLASSIFICATION_TYPE":"U","APOAPSIS":"300.250","NORAD_CAT_ID":"47168","ELEMENT_SET_NO":"999","OBJECT_NAME":"STARLINK-1885","INCLINATION":"53.0451","DECAY_DATE":null,"RCS_SIZE":"LARGE","MEAN_ELEMENT_THEORY":"SGP4","PERIOD":"90.509","COUNTRY_CODE":"US","SITE":"AFETR","SEMIMAJOR_AXIS":"6677.635","CENTER_NAME":"EARTH","MEAN_ANOMALY":"315.5179","TIME_SYSTEM":"UTC","BSTAR":"0.00008980300000","REV_AT_EPOCH":"8395","ECCENTRICITY":"0.00011230","MEAN_MOTION_DDOT":"0.0000113510000","PERIAPSIS":"298.751","EPHEMERIS_TYPE":"0","EPOCH":"2022-05-24T19:18:30.877056","OBJECT_ID":"2020-088AY","ARG_OF_PERICENTER":"44.5937","MEAN_MOTION_DOT":"0.00025507","FILE":"3462783","REF_FRAME":"TEME"},{"CLASSIFICATION_TYPE":"U","NORAD_CAT_ID":"47170","APOAPSIS":"548.250","OBJECT_NAME":"STARLINK-1887","ELEMENT_SET_NO":"999","PERIOD":"95.593","MEAN_ELEMENT_THEORY":"SGP4","RCS_SIZE":"LARGE","DECAY_DATE":null,"INCLINATION":"53.0562","TLE_LINE2":"2 47170  53.0562  38.1452 0001465  54.4380 305.6746 15.06392988 83121","OBJECT_TYPE":"PAYLOAD","LAUNCH_DATE":"2020-11-25","TLE_LINE1":"1 47170U 20088BA  22144.90723080 -.00000132  00000-0  10050-4 0  9996","MEAN_MOTION":"15.06392988","GP_ID":"204455172","RA_OF_ASC_NODE":"38.1452","MEAN_MOTION_DDOT":"0.0000000000000","ECCENTRICITY":"0.00014650","REV_AT_EPOCH":"8312","EPOCH":"2022-05-24T21:46:24.741120","OBJECT_ID":"2020-088BA","EPHEMERIS_TYPE":"0","PERIAPSIS":"546.220","FILE":"3462783","ARG_OF_PERICENTER":"54.4380","MEAN_MOTION_DOT":"-0.00000132","REF_FRAME":"TEME","SITE":"AFETR","COUNTRY_CODE":"US","MEAN_ANOMALY":"305.6746","CENTER_NAME":"EARTH","SEMIMAJOR_AXIS":"6925.370","BSTAR":"0.00001005000000","TIME_SYSTEM":"UTC"},{"REV_AT_EPOCH":"8325","MEAN_MOTION_DDOT":"0.0000000000000","ECCENTRICITY":"0.00017280","PERIAPSIS":"546.100","EPOCH":"2022-05-24T20:38:44.865600","OBJECT_ID":"2020-088BB","EPHEMERIS_TYPE":"0","MEAN_MOTION_DOT":"0.00005193","ARG_OF_PERICENTER":"68.5470","FILE":"3462783","REF_FRAME":"TEME","COUNTRY_CODE":"US","SITE":"AFETR","SEMIMAJOR_AXIS":"6925.431","MEAN_ANOMALY":"291.5704","CENTER_NAME":"EARTH","TIME_SYSTEM":"UTC","BSTAR":"0.00036751000000","CLASSIFICATION_TYPE":"U","APOAPSIS":"548.493","NORAD_CAT_ID":"47171","ELEMENT_SET_NO":"999","OBJECT_NAME":"STARLINK-1888","DECAY_DATE":null,"INCLINATION":"53.0557","PERIOD":"95.594","MEAN_ELEMENT_THEORY":"SGP4","RCS_SIZE":"LARGE","OBJECT_TYPE":"PAYLOAD","LAUNCH_DATE":"2020-11-25","TLE_LINE2":"2 47171  53.0557  28.3579 0001728  68.5470 291.5704 15.06373014 83255","GP_ID":"204455416","RA_OF_ASC_NODE":"28.3579","MEAN_MOTION":"15.06373014","TLE_LINE1":"1 47171U 20088BB  22144.86024150  .00005193  00000-0  36751-3 0  9990"},{"OBJECT_TYPE":"PAYLOAD","LAUNCH_DATE":"2020-11-25","TLE_LINE2":"2 47173  53.0554  38.1070 0001602  62.2175 297.8976 15.06387546 83124","RA_OF_ASC_NODE":"38.1070","GP_ID":"204453672","TLE_LINE1":"1 47173U 20088BD  22144.91829959  .00001017  00000-0  87173-4 0  9994","MEAN_MOTION":"15.06387546","CLASSIFICATION_TYPE":"U","APOAPSIS":"548.361","NORAD_CAT_ID":"47173","ELEMENT_SET_NO":"999","OBJECT_NAME":"STARLINK-1890","DECAY_DATE":null,"INCLINATION":"53.0554","RCS_SIZE":"LARGE","MEAN_ELEMENT_THEORY":"SGP4","PERIOD":"95.593","COUNTRY_CODE":"US","SITE":"AFETR","SEMIMAJOR_AXIS":"6925.387","CENTER_NAME":"EARTH","MEAN_ANOMALY":"297.8976","TIME_SYSTEM":"UTC","BSTAR":"0.00008717300000","REV_AT_EPOCH":"8312","ECCENTRICITY":"0.00016020","MEAN_MOTION_DDOT":"0.0000000000000","PERIAPSIS":"546.142","EPHEMERIS_TYPE":"0","OBJECT_ID":"2020-088BD","EPOCH":"2022-05-24T22:02:21.084576","ARG_OF_PERICENTER":"62.2175","MEAN_MOTION_DOT":"0.00001017","FILE":"3462783","REF_FRAME":"TEME"},{"ECCENTRICITY":"0.00019540","MEAN_MOTION_DDOT":"0.0000000000000","REV_AT_EPOCH":"8311","EPHEMERIS_TYPE":"0","EPOCH":"2022-05-24T20:42:44.167680","OBJECT_ID":"2020-088BE","PERIAPSIS":"545.874","FILE":"3462783","ARG_OF_PERICENTER":"45.9324","MEAN_MOTION_DOT":"0.00002490","REF_FRAME":"TEME","SITE":"AFETR","COUNTRY_CODE":"US","CENTER_NAME":"EARTH","MEAN_ANOMALY":"314.1825","SEMIMAJOR_AXIS":"6925.363","BSTAR":"0.00018601000000","TIME_SYSTEM":"UTC","CLASSIFICATION_TYPE":"U","NORAD_CAT_ID":"47174","APOAPSIS":"548.581","OBJECT_NAME":"STARLINK-1891","ELEMENT_SET_NO":"999","RCS_SIZE":"LARGE","PERIOD":"95.592","MEAN_ELEMENT_THEORY":"SGP4","INCLINATION":"53.0547","DECAY_DATE":null,"TLE_LINE2":"2 47174  53.0547  38.3439 0001954  45.9324 314.1825 15.06395404 83119","OBJECT_TYPE":"PAYLOAD","LAUNCH_DATE":"2020-11-25","MEAN_MOTION":"15.06395404","TLE_LINE1":"1 47174U 20088BE  22144.86301120  .00002490  00000-0  18601-3 0  9999","RA_OF_ASC_NODE":"38.3439","GP_ID":"204453922"},{"BSTAR":"-0.00003052500000","TIME_SYSTEM":"UTC","MEAN_ANOMALY":"291.8707","CENTER_NAME":"EARTH","SEMIMAJOR_AXIS":"6925.357","SITE":"AFETR","COUNTRY_CODE":"US","REF_FRAME":"TEME","FILE":"3462783","MEAN_MOTION_DOT":"-0.00000736","ARG_OF_PERICENTER":"68.2462","OBJECT_ID":"2020-088BF","EPOCH":"2022-05-24T20:40:03.313344","EPHEMERIS_TYPE":"0","PERIAPSIS":"546.051","MEAN_MOTION_DDOT":"0.0000000000000","ECCENTRICITY":"0.00016910","REV_AT_EPOCH":"8339","MEAN_MOTION":"15.06397159","TLE_LINE1":"1 47175U 20088BF  22144.86114946 -.00000736  00000-0 -30525-4 0  9991","GP_ID":"204454674","RA_OF_ASC_NODE":"18.3560","TLE_LINE2":"2 47175  53.0571  18.3560 0001691  68.2462 291.8707 15.06397159 83398","OBJECT_TYPE":"PAYLOAD","LAUNCH_DATE":"2020-11-25","PERIOD":"95.592","MEAN_ELEMENT_THEORY":"SGP4","RCS_SIZE":"LARGE","INCLINATION":"53.0571","DECAY_DATE":null,"OBJECT_NAME":"STARLINK-1895","ELEMENT_SET_NO":"999","NORAD_CAT_ID":"47175","APOAPSIS":"548.393","CLASSIFICATION_TYPE":"U"},{"SITE":"AFETR","COUNTRY_CODE":"US","CENTER_NAME":"EARTH","MEAN_ANOMALY":"300.4027","SEMIMAJOR_AXIS":"6925.377","BSTAR":"0.00007461900000","TIME_SYSTEM":"UTC","ECCENTRICITY":"0.00016640","MEAN_MOTION_DDOT":"0.0000000000000","REV_AT_EPOCH":"8326","EPHEMERIS_TYPE":"0","OBJECT_ID":"2020-088BH","EPOCH":"2022-05-24T21:53:03.174720","PERIAPSIS":"546.089","FILE":"3462783","MEAN_MOTION_DOT":"0.00000830","ARG_OF_PERICENTER":"59.7127","REF_FRAME":"TEME","TLE_LINE2":"2 47177  53.0576  28.1301 0001664  59.7127 300.4027 15.06390872 83263","LAUNCH_DATE":"2020-11-25","OBJECT_TYPE":"PAYLOAD","MEAN_MOTION":"15.06390872","TLE_LINE1":"1 47177U 20088BH  22144.91184230  .00000830  00000-0  74619-4 0  9997","RA_OF_ASC_NODE":"28.1301","GP_ID":"204454918","CLASSIFICATION_TYPE":"U","NORAD_CAT_ID":"47177","APOAPSIS":"548.394","OBJECT_NAME":"STARLINK-1907","ELEMENT_SET_NO":"999","RCS_SIZE":"LARGE","MEAN_ELEMENT_THEORY":"SGP4","PERIOD":"95.593","DECAY_DATE":null,"INCLINATION":"53.0576"},{"MEAN_ELEMENT_THEORY":"SGP4","PERIOD":"95.592","RCS_SIZE":"LARGE","INCLINATION":"53.0574","DECAY_DATE":null,"OBJECT_NAME":"STARLINK-1912","ELEMENT_SET_NO":"999","NORAD_CAT_ID":"47178","APOAPSIS":"548.256","CLASSIFICATION_TYPE":"U","TLE_LINE1":"1 47178U 20088BJ  22144.89248714  .00000535  00000-0  54829-4 0  9996","MEAN_MOTION":"15.06399386","GP_ID":"204454172","RA_OF_ASC_NODE":"38.2112","TLE_LINE2":"2 47178  53.0574  38.2112 0001502  64.0963 296.0181 15.06399386 83116","OBJECT_TYPE":"PAYLOAD","LAUNCH_DATE":"2020-11-25","REF_FRAME":"TEME","FILE":"3462783","MEAN_MOTION_DOT":"0.00000535","ARG_OF_PERICENTER":"64.0963","OBJECT_ID":"2020-088BJ","EPOCH":"2022-05-24T21:25:10.888896","EPHEMERIS_TYPE":"0","PERIAPSIS":"546.175","MEAN_MOTION_DDOT":"0.0000000000000","ECCENTRICITY":"0.00015020","REV_AT_EPOCH":"8311","BSTAR":"0.00005482900000","TIME_SYSTEM":"UTC","MEAN_ANOMALY":"296.0181","CENTER_NAME":"EARTH","SEMIMAJOR_AXIS":"6925.350","SITE":"AFETR","COUNTRY_CODE":"US"},{"SITE":"AFETR","COUNTRY_CODE":"US","BSTAR":"0.00003907600000","TIME_SYSTEM":"UTC","MEAN_ANOMALY":"290.1757","CENTER_NAME":"EARTH","SEMIMAJOR_AXIS":"6925.377","OBJECT_ID":"2020-088BK","EPOCH":"2022-05-24T21:07:55.862688","EPHEMERIS_TYPE":"0","PERIAPSIS":"546.105","MEAN_MOTION_DDOT":"0.0000000000000","ECCENTRICITY":"0.00016430","REV_AT_EPOCH":"8297","REF_FRAME":"TEME","FILE":"3462783","ARG_OF_PERICENTER":"69.9409","MEAN_MOTION_DOT":"0.00000300","TLE_LINE2":"2 47179  53.0580  48.2595 0001643  69.9409 290.1757 15.06390571 82979","LAUNCH_DATE":"2020-11-25","OBJECT_TYPE":"PAYLOAD","MEAN_MOTION":"15.06390571","TLE_LINE1":"1 47179U 20088BK  22144.88050767  .00000300  00000-0  39076-4 0  9992","GP_ID":"204454422","RA_OF_ASC_NODE":"48.2595","NORAD_CAT_ID":"47179","APOAPSIS":"548.380","CLASSIFICATION_TYPE":"U","MEAN_ELEMENT_THEORY":"SGP4","PERIOD":"95.593","RCS_SIZE":"LARGE","DECAY_DATE":null,"INCLINATION":"53.0580","OBJECT_NAME":"STARLINK-1913","ELEMENT_SET_NO":"999"}];
